INTELSAT 902 (IS-902)   
1 26900U 01039A   26202.08836240 -.00000287  00000+0  00000+0 0  9999
2 26900   6.1991  71.3638 0004318  48.1889 161.0147  1.00273029 91034
INTELSAT 904 (IS-904)   
1 27380U 02007A   26201.96852713 -.00000230  00000+0  00000+0 0  9995
2 27380   7.0022  68.7758 0005189  28.4550 158.6919  1.00273688 52103
DIRECTV 5 (TEMPO 1)     
1 27426U 02023A   26202.25044965 -.00000060  00000+0  00000+0 0  9990
2 27426   4.9626  74.8839 0003161  42.0375 162.1412  1.00271918 88463
INTELSAT 905 (IS-905)   
1 27438U 02027A   26202.19211397  .00000090  00000+0  00000+0 0  9997
2 27438   6.8369  69.3856 0003549  49.1439 112.3772  1.00272039 51706
GALAXY 3C (G-3C)        
1 27445U 02030A   26202.28760013 -.00000154  00000+0  00000+0 0  9995
2 27445   3.8202  77.5384 0001804  29.9142 200.2881  1.00271357 46831
INTELSAT 906 (IS-906)   
1 27513U 02041A   26202.20130985  .00000009  00000+0  00000+0 0  9992
2 27513   5.8852  72.4973 0003488  29.8991 333.1961  1.00271099 87371
GALAXY 13 (HORIZONS-1)  
1 27954U 03044A   26202.23022773  .00000132  00000+0  00000+0 0  9990
2 27954   1.5040  83.4188 0002082  41.4976 106.9621  1.00273988 46917
INTELSAT 10-02          
1 28358U 04022A   26202.25968729 -.00000011  00000+0  00000+0 0  9995
2 28358   0.0573 256.2087 0000043  60.5142  74.7811  1.00268959 80891
DIRECTV 8               
1 28659U 05019A   26202.25600182  .00000002  00000+0  00000+0 0  9991
2 28659   0.0173  69.8160 0003160  55.3408 146.9676  1.00272958 77410
GALAXY 28 (G-28)        
1 28702U 05022A   26202.25448727 -.00000202  00000+0  00000+0 0  9992
2 28702   3.3831  78.5098 0002326  37.8997 247.1254  1.00272033 52316
GALAXY 16 (G-16)        
1 29236U 06023A   26202.28614708 -.00000126  00000+0  00000+0 0  9999
2 29236   0.0254 135.1540 0002748 346.1343 181.7576  1.00271691 73315
DIRECTV 9S              
1 29494U 06043A   26202.24489197 -.00000114  00000+0  00000+0 0  9992
2 29494   2.5065  80.4932 0005152  34.1833 171.2869  1.00271799 51724
GALAXY 17 (G-17)        
1 31307U 07016B   26202.23933683 -.00000208  00000+0  00000+0 0  9996
2 31307   3.0551  79.4734 0003519  31.3945 189.2751  1.00273636 70140
INTELSAT 11 (IS-11)     
1 32253U 07044B   26202.11264088 -.00000239  00000+0  00000+0 0  9995
2 32253   3.6516  78.2579 0004484  99.1085 138.6910  0.99053129 68783
HORIZONS-2              
1 32388U 07063B   26202.26510089 -.00000254  00000+0  00000+0 0  9993
2 32388   2.6878  80.2102 0003658  20.1546 220.2987  1.00272396 68150
DIRECTV 11              
1 32729U 08013A   26202.28614632 -.00000124  00000+0  00000+0 0  9995
2 32729   0.0042 231.5363 0000111 255.2705 176.0568  1.00270757 45936
GALAXY 18 (G-18)        
1 32951U 08024A   26202.28011715  .00000000  00000+0  00000+0 0  9999
2 32951   0.0146  43.8683 0003114  80.4860 152.5354  1.00273016 46195
GALAXY 19 (G-19)        
1 33376U 08045A   26202.21977722 -.00000138  00000+0  00000+0 0  9999
2 33376   0.0635 253.7768 0002628 237.8040 149.5139  1.00271536 65242
FM-5                    
1 35493U 09034A   26202.26201450 -.00000199  00000+0  00000+0 0  9990
2 35493   0.0434 254.6471 0000853 128.5126 284.0155  1.00270188 46986
INTELSAT 14 (IS-14)     
1 36097U 09064A   26202.25093391 -.00000273  00000+0  00000+0 0  9999
2 36097   0.0187  53.4796 0002622  70.3218 220.5409  1.00271923 60946
INTELSAT 15 (IS-15)     
1 36106U 09067A   26202.09350191 -.00000185  00000+0  00000+0 0  9991
2 36106   0.0179  48.8879 0002314  69.4231 299.3548  1.00272370 41562
DIRECTV 12              
1 36131U 09075A   26202.26086260 -.00000102  00000+0  00000+0 0  9999
2 36131   0.0315 199.8760 0000261   4.1372  86.1963  1.00272464 46897
INTELSAT 16 (IS-16)     
1 36397U 10006A   26202.24286797 -.00000244  00000+0  00000+0 0  9991
2 36397   0.0176 320.3468 0002683 178.7729 171.1026  1.00270792 59998
XM-5                    
1 37185U 10053A   26202.25600182 -.00000022  00000+0  00000+0 0  9992
2 37185   0.0639 265.0101 0001167 315.7230  55.2492  1.00271974 57825
INTELSAT 17 (IS-17)     
1 37238U 10065B   26202.13040763 -.00000001  00000+0  00000+0 0  9991
2 37238   0.0125  98.2825 0002577  35.1385 278.4240  1.00272912 53585
INTELSAT 28 (IS-28)     
1 37392U 11016A   26202.25362059 -.00000225  00000+0  00000+0 0  9995
2 37392   1.8921  82.2114 0003946  42.7272 233.6706  1.00271449 53622
INTELSAT 18 (IS-18)     
1 37834U 11056A   26202.15294106  .00000053  00000+0  00000+0 0  9994
2 37834   0.0199 296.6224 0001947 188.9185  48.4215  1.00271265 54151
INTELSAT 22 (IS-22)     
1 38098U 12011A   26202.13162097 -.00000058  00000+0  00000+0 0  9996
2 38098   0.0037 353.4224 0001998 148.1856 276.7696  1.00271246  7523
INTELSAT 19 (IS-19)     
1 38356U 12030A   26202.22150328 -.00000056  00000+0  00000+0 0  9996
2 38356   0.0173  41.9235 0003126  77.3519  65.4386  1.00272900 50790
INTELSAT 20 (IS-20)     
1 38740U 12043A   26202.16364131 -.00000023  00000+0  00000+0 0  9993
2 38740   0.0142  75.7731 0001281 108.8063 241.7581  1.00270459 51089
INTELSAT 21 (IS-21)     
1 38749U 12045A   26202.24842057 -.00000284  00000+0  00000+0 0  9990
2 38749   0.0397 251.3013 0001821 238.5811 200.5629  1.00271356 50865
